start=new Date('2022-09-04T00:00:00.000Z').valueOf();
sats=[{"EPHEMERIS_TYPE":"0","NORAD_CAT_ID":"51780","ELEMENT_SET_NO":"999","INCLINATION":"53.2174","REV_AT_EPOCH":"130","TIME_SYSTEM":"UTC","MEAN_ANOMALY":"356.0567","MEAN_ELEMENT_THEORY":"SGP4","FILE":"3556957","BSTAR":"-0.00388530000000","REF_FRAME":"TEME","ECCENTRICITY":"0.00011810","COUNTRY_CODE":"US","GP_ID":"211673077","TLE_LINE2":"2 51780  53.2174 337.7214 0001181  68.1487 356.0567 15.08879056  1302","PERIOD":"95.435","MEAN_MOTION":"15.08879056","LAUNCH_DATE":"2022-02-25","APOAPSIS":"540.443","CLASSIFICATION_TYPE":"U","OBJECT_NAME":"STARLINK-3617","OBJECT_ID":"2022-017N","PERIAPSIS":"538.809","RA_OF_ASC_NODE":"337.7214","EPOCH":"2022-09-03T22:00:00.999936","CENTER_NAME":"EARTH","ARG_OF_PERICENTER":"68.1487","SEMIMAJOR_AXIS":"6917.761","MEAN_MOTION_DOT":"-0.00061658","RCS_SIZE":"LARGE","TLE_LINE1":"1 51780U 22017N   22246.91667824 -.00061658  00000-0 -38853-2 0  9999","OBJECT_TYPE":"PAYLOAD","SITE":"AFWTR","DECAY_DATE":null,"MEAN_MOTION_DDOT":"0.0000000000000"},{"EPHEMERIS_TYPE":"0","NORAD_CAT_ID":"51781","ELEMENT_SET_NO":"999","INCLINATION":"53.2178","REV_AT_EPOCH":"130","BSTAR":"-0.00159390000000","FILE":"3556957","MEAN_ANOMALY":"340.6350","MEAN_ELEMENT_THEORY":"SGP4","TIME_SYSTEM":"UTC","REF_FRAME":"TEME","ECCENTRICITY":"0.00013980","TLE_LINE2":"2 51781  53.2178 337.7131 0001398  48.7442 340.6350 15.08863489  1302","GP_ID":"211673320","COUNTRY_CODE":"US","PERIOD":"95.436","OBJECT_NAME":"STARLINK-3580","OBJECT_ID":"2022-017P","CLASSIFICATION_TYPE":"U","APOAPSIS":"540.641","LAUNCH_DATE":"2022-02-25","MEAN_MOTION":"15.08863489","RA_OF_ASC_NODE":"337.7131","PERIAPSIS":"538.706","CENTER_NAME":"EARTH","EPOCH":"2022-09-03T22:00:00.999936","MEAN_MOTION_DOT":"-0.00025581","SEMIMAJOR_AXIS":"6917.809","ARG_OF_PERICENTER":"48.7442","RCS_SIZE":"LARGE","TLE_LINE1":"1 51781U 22017P   22246.91667824 -.00025581  00000-0 -15939-2 0  9995","MEAN_MOTION_DDOT":"0.0000000000000","DECAY_DATE":null,"SITE":"AFWTR","OBJECT_TYPE":"PAYLOAD"},{"OBJECT_ID":"2022-017Q","OBJECT_NAME":"STARLINK-3616","APOAPSIS":"540.610","CLASSIFICATION_TYPE":"U","LAUNCH_DATE":"2022-02-25","MEAN_MOTION":"15.08882310","RA_OF_ASC_NODE":"347.7048","PERIAPSIS":"538.622","PERIOD":"95.435","TLE_LINE1":"1 51782U 22017Q   22246.91667824 -.00058929  00000-0 -37107-2 0  9999","RCS_SIZE":"LARGE","MEAN_MOTION_DDOT":"0.0000000000000","SITE":"AFWTR","DECAY_DATE":null,"OBJECT_TYPE":"PAYLOAD","CENTER_NAME":"EARTH","EPOCH":"2022-09-03T22:00:00.999936","MEAN_MOTION_DOT":"-0.00058929","SEMIMAJOR_AXIS":"6917.751","ARG_OF_PERICENTER":"60.6197","ELEMENT_SET_NO":"999","INCLINATION":"53.2161","REV_AT_EPOCH":"130","EPHEMERIS_TYPE":"0","NORAD_CAT_ID":"51782","ECCENTRICITY":"0.00014370","TLE_LINE2":"2 51782  53.2161 347.7048 0001437  60.6197 233.7499 15.08882310  1307","GP_ID":"211672076","COUNTRY_CODE":"US","FILE":"3556957","BSTAR":"-0.00371070000000","MEAN_ANOMALY":"233.7499","MEAN_ELEMENT_THEORY":"SGP4","TIME_SYSTEM":"UTC","REF_FRAME":"TEME"},{"PERIOD":"95.436","PERIAPSIS":"538.556","RA_OF_ASC_NODE":"337.7116","OBJECT_ID":"2022-017R","OBJECT_NAME":"STARLINK-3628","APOAPSIS":"540.748","CLASSIFICATION_TYPE":"U","LAUNCH_DATE":"2022-02-25","MEAN_MOTION":"15.08870475","MEAN_MOTION_DOT":"-0.00057277","SEMIMAJOR_AXIS":"6917.787","ARG_OF_PERICENTER":"54.8791","CENTER_NAME":"EARTH","EPOCH":"2022-09-03T22:00:00.999936","MEAN_MOTION_DDOT":"0.0000000000000","DECAY_DATE":null,"SITE":"AFWTR","OBJECT_TYPE":"PAYLOAD","TLE_LINE1":"1 51783U 22017R   22246.91667824 -.00057277  00000-0 -36065-2 0  9997","RCS_SIZE":"LARGE","NORAD_CAT_ID":"51783","EPHEMERIS_TYPE":"0","REV_AT_EPOCH":"130","ELEMENT_SET_NO":"999","INCLINATION":"53.2177","REF_FRAME":"TEME","BSTAR":"-0.00360650000000","FILE":"3556957","MEAN_ELEMENT_THEORY":"SGP4","MEAN_ANOMALY":"354.5425","TIME_SYSTEM":"UTC","TLE_LINE2":"2 51783  53.2177 337.7116 0001584  54.8791 354.5425 15.08870475  1308","GP_ID":"211672326","COUNTRY_CODE":"US","ECCENTRICITY":"0.00015840"},{"PERIAPSIS":"538.634","RA_OF_ASC_NODE":"347.7079","CLASSIFICATION_TYPE":"U","APOAPSIS":"540.709","OBJECT_ID":"2022-017S","OBJECT_NAME":"STARLINK-3632","MEAN_MOTION":"15.08864125","LAUNCH_DATE":"2022-02-25","PERIOD":"95.436","MEAN_MOTION_DDOT":"0.0000000000000","OBJECT_TYPE":"PAYLOAD","SITE":"AFWTR","DECAY_DATE":null,"RCS_SIZE":"LARGE","TLE_LINE1":"1 51784U 22017S   22246.91667824 -.00026509  00000-0 -16525-2 0  9991","SEMIMAJOR_AXIS":"6917.807","MEAN_MOTION_DOT":"-0.00026509","ARG_OF_PERICENTER":"63.6843","CENTER_NAME":"EARTH","EPOCH":"2022-09-03T22:00:00.999936","REV_AT_EPOCH":"130","ELEMENT_SET_NO":"999","INCLINATION":"53.2172","NORAD_CAT_ID":"51784","EPHEMERIS_TYPE":"0","TLE_LINE2":"2 51784  53.2172 347.7079 0001500  63.6843 250.7227 15.08864125  1309","COUNTRY_CODE":"US","GP_ID":"211672577","ECCENTRICITY":"0.00015000","REF_FRAME":"TEME","BSTAR":"-0.00165250000000","FILE":"3556957","TIME_SYSTEM":"UTC","MEAN_ANOMALY":"250.7227","MEAN_ELEMENT_THEORY":"SGP4"},{"PERIOD":"95.436","PERIAPSIS":"538.638","RA_OF_ASC_NODE":"337.7235","OBJECT_NAME":"STARLINK-3646","OBJECT_ID":"2022-017T","APOAPSIS":"540.704","CLASSIFICATION_TYPE":"U","LAUNCH_DATE":"2022-02-25","MEAN_MOTION":"15.08864367","MEAN_MOTION_DOT":"-0.00025802","SEMIMAJOR_AXIS":"6917.806","ARG_OF_PERICENTER":"57.1305","CENTER_NAME":"EARTH","EPOCH":"2022-09-03T22:00:00.999936","MEAN_MOTION_DDOT":"0.0000000000000","SITE":"AFWTR","DECAY_DATE":null,"OBJECT_TYPE":"PAYLOAD","TLE_LINE1":"1 51785U 22017T   22246.91667824 -.00025802  00000-0 -16078-2 0  9990","RCS_SIZE":"LARGE","NORAD_CAT_ID":"51785","EPHEMERIS_TYPE":"0","REV_AT_EPOCH":"130","INCLINATION":"53.2175","ELEMENT_SET_NO":"999","REF_FRAME":"TEME","FILE":"3556957","BSTAR":"-0.00160780000000","MEAN_ANOMALY":"12.2660","MEAN_ELEMENT_THEORY":"SGP4","TIME_SYSTEM":"UTC","TLE_LINE2":"2 51785  53.2175 337.7235 0001493  57.1305  12.2660 15.08864367  1308","GP_ID":"211672820","COUNTRY_CODE":"US","ECCENTRICITY":"0.00014930"},{"TIME_SYSTEM":"UTC","MEAN_ELEMENT_THEORY":"SGP4","MEAN_ANOMALY":"307.5374","BSTAR":"-0.00160390000000","FILE":"3556957","REF_FRAME":"TEME","ECCENTRICITY":"0.00013740","COUNTRY_CODE":"US","GP_ID":"211671576","TLE_LINE2":"2 51786  53.2170 347.7087 0001374  46.8732 307.5374 15.08868389  1307","EPHEMERIS_TYPE":"0","NORAD_CAT_ID":"51786","ELEMENT_SET_NO":"999","INCLINATION":"53.2170","REV_AT_EPOCH":"130","EPOCH":"2022-09-03T22:00:00.999936","CENTER_NAME":"EARTH","ARG_OF_PERICENTER":"46.8732","SEMIMAJOR_AXIS":"6917.794","MEAN_MOTION_DOT":"-0.00025743","TLE_LINE1":"1 51786U 22017U   22246.91667824 -.00025743  00000-0 -16039-2 0  9992","RCS_SIZE":"LARGE","OBJECT_TYPE":"PAYLOAD","SITE":"AFWTR","DECAY_DATE":null,"MEAN_MOTION_DDOT":"0.0000000000000","PERIOD":"95.436","MEAN_MOTION":"15.08868389","LAUNCH_DATE":"2022-02-25","CLASSIFICATION_TYPE":"U","APOAPSIS":"540.609","OBJECT_ID":"2022-017U","OBJECT_NAME":"STARLINK-3638","RA_OF_ASC_NODE":"347.7087","PERIAPSIS":"538.708"},{"REV_AT_EPOCH":"130","ELEMENT_SET_NO":"999","INCLINATION":"53.2172","NORAD_CAT_ID":"51787","EPHEMERIS_TYPE":"0","TLE_LINE2":"2 51787  53.2172 347.7082 0001737  43.7880 230.4644 15.08862832  1309","COUNTRY_CODE":"US","GP_ID":"211671826","ECCENTRICITY":"0.00017370","REF_FRAME":"TEME","BSTAR":"-0.00158730000000","FILE":"3556957","TIME_SYSTEM":"UTC","MEAN_ELEMENT_THEORY":"SGP4","MEAN_ANOMALY":"230.4644","RA_OF_ASC_NODE":"347.7082","PERIAPSIS":"538.474","CLASSIFICATION_TYPE":"U","APOAPSIS":"540.877","OBJECT_NAME":"STARLINK-3619","OBJECT_ID":"2022-017V","MEAN_MOTION":"15.08862832","LAUNCH_DATE":"2022-02-25","PERIOD":"95.436","MEAN_MOTION_DDOT":"0.0000000000000","OBJECT_TYPE":"PAYLOAD","DECAY_DATE":null,"SITE":"AFWTR","RCS_SIZE":"LARGE","TLE_LINE1":"1 51787U 22017V   22246.91667824 -.00025477  00000-0 -15873-2 0  9992","SEMIMAJOR_AXIS":"6917.811","MEAN_MOTION_DOT":"-0.00025477","ARG_OF_PERICENTER":"43.7880","CENTER_NAME":"EARTH","EPOCH":"2022-09-03T22:00:00.999936"},{"EPHEMERIS_TYPE":"0","NORAD_CAT_ID":"51788","ELEMENT_SET_NO":"999","INCLINATION":"53.2170","REV_AT_EPOCH":"130","TIME_SYSTEM":"UTC","MEAN_ELEMENT_THEORY":"SGP4","MEAN_ANOMALY":"0.9286","BSTAR":"-0.00146040000000","FILE":"3556957","REF_FRAME":"TEME","ECCENTRICITY":"0.00015830","COUNTRY_CODE":"US","GP_ID":"211673078","TLE_LINE2":"2 51788  53.2170 347.7269 0001583  53.4634   0.9286 15.08853984  1309","PERIOD":"95.437","MEAN_MOTION":"15.08853984","LAUNCH_DATE":"2022-02-25","APOAPSIS":"540.798","CLASSIFICATION_TYPE":"U","OBJECT_NAME":"STARLINK-3641","OBJECT_ID":"2022-017W","PERIAPSIS":"538.608","RA_OF_ASC_NODE":"347.7269","EPOCH":"2022-09-03T22:00:00.999936","CENTER_NAME":"EARTH","ARG_OF_PERICENTER":"53.4634","SEMIMAJOR_AXIS":"6917.838","MEAN_MOTION_DOT":"-0.00023464","RCS_SIZE":"LARGE","TLE_LINE1":"1 51788U 22017W   22246.91667824 -.00023464  00000-0 -14604-2 0  9998","OBJECT_TYPE":"PAYLOAD","DECAY_DATE":null,"SITE":"AFWTR","MEAN_MOTION_DDOT":"0.0000000000000"},{"PERIOD":"95.435","RA_OF_ASC_NODE":"347.7126","PERIAPSIS":"538.477","OBJECT_NAME":"STARLINK-3639","OBJECT_ID":"2022-017X","APOAPSIS":"540.805","CLASSIFICATION_TYPE":"U","LAUNCH_DATE":"2022-02-25","MEAN_MOTION":"15.08874193","MEAN_MOTION_DOT":"-0.00026266","SEMIMAJOR_AXIS":"6917.776","ARG_OF_PERICENTER":"48.0726","CENTER_NAME":"EARTH","EPOCH":"2022-09-03T22:00:00.999936","MEAN_MOTION_DDOT":"0.0000000000000","SITE":"AFWTR","DECAY_DATE":null,"OBJECT_TYPE":"PAYLOAD","TLE_LINE1":"1 51789U 22017X   22246.91667824 -.00026266  00000-0 -16367-2 0  9990","RCS_SIZE":"LARGE","NORAD_CAT_ID":"51789","EPHEMERIS_TYPE":"0","REV_AT_EPOCH":"130","ELEMENT_SET_NO":"999","INCLINATION":"53.2171","REF_FRAME":"TEME","FILE":"3556957","BSTAR":"-0.00163670000000","MEAN_ANOMALY":"286.3106","MEAN_ELEMENT_THEORY":"SGP4","TIME_SYSTEM":"UTC","TLE_LINE2":"2 51789  53.2171 347.7126 0001683  48.0726 286.3106 15.08874193  1302","GP_ID":"211673321","COUNTRY_CODE":"US","ECCENTRICITY":"0.00016830"}];
